COMMENT,ORIGINATOR,NORAD_CAT_ID,OBJECT_NAME,OBJECT_TYPE,CLASSIFICATION_TYPE,INTLDES,EPOCH,EPOCH_MICROSECONDS,MEAN_MOTION,ECCENTRICITY,INCLINATION,RA_OF_ASC_NODE,ARG_OF_PERICENTER,MEAN_ANOMALY,EPHEMERIS_TYPE,ELEMENT_SET_NO,REV_AT_EPOCH,BSTAR,MEAN_MOTION_DOT,MEAN_MOTION_DDOT,FILE,TLE_LINE0,TLE_LINE1,TLE_LINE2,OBJECT_ID,OBJECT_NUMBER,SEMIMAJOR_AXIS,PERIOD,APOGEE,PERIGEE,DECAYED
"GENERATED VIA SPACETRACK.ORG API","18 SPCS","55100","SPACEBEE-158","PAYLOAD","U","23001CV","2023-09-17 17:27:14","351616","15.2324495","0.0014798","97.468","320.1816","45.18","315.0636","0","999","3917","0.0015495","0.00036888","0","4009107","0 SPACEBEE-158","1 55100U 23001CV  23260.72724944  .00036888  00000-0  15495-2 0  9998","2 55100  97.4680 320.1816 0014798  45.1800 315.0636 15.23244950 39174","2023-001CV","55100","6874.198","94.535","506.235","485.890","0"
"GENERATED VIA SPACETRACK.ORG API","18 SPCS","55100","SPACEBEE-158","PAYLOAD","U","23001CV","2023-09-18 02:54:48","686976","15.23261644","0.0014755","97.4679","320.5738","43.8501","316.3904","0","999","3923","0.0014428","0.00034347","0","4009468","0 SPACEBEE-158","1 55100U 23001CV  23261.12139684  .00034347  00000-0  14428-2 0  9997","2 55100  97.4679 320.5738 0014755  43.8501 316.3904 15.23261644 39233","2023-001CV","55100","6874.147","94.534","506.155","485.870","0"
"GENERATED VIA SPACETRACK.ORG API","18 SPCS","55100","SPACEBEE-158","PAYLOAD","U","23001CV","2023-09-18 09:13:11","257248","15.23271384","0.0014766","97.4678","320.835","42.7862","317.4521","0","999","3927","0.0011489","0.00027319","0","4009863","0 SPACEBEE-158","1 55100U 23001CV  23261.38415807  .00027319  00000-0  11489-2 0  9994","2 55100  97.4678 320.8350 0014766  42.7862 317.4521 15.23271384 39278","2023-001CV","55100","6874.118","94.533","506.133","485.833","0"
"GENERATED VIA SPACETRACK.ORG API","18 SPCS","55100","SPACEBEE-158","PAYLOAD","U","23001CV","2023-09-18 17:06:09","252576","15.23289046","0.0014757","97.4678","321.1618","41.787","318.449","0","999","3932","0.0011643","0.00027702","0","4010050","0 SPACEBEE-158","1 55100U 23001CV  23261.71260709  .00027702  00000-0  11643-2 0  9998","2 55100  97.4678 321.1618 0014757  41.7870 318.4490 15.23289046 39323","2023-001CV","55100","6874.065","94.532","506.074","485.786","0"
"GENERATED VIA SPACETRACK.ORG API","18 SPCS","55100","SPACEBEE-158","PAYLOAD","U","23001CV","2023-09-18 17:06:09","252576","15.23289046","0.0014757","97.4678","321.1618","41.787","318.449","0","999","3932","0.0011643","0.00027702","0","4010122","0 SPACEBEE-158","1 55100U 23001CV  23261.71260709  .00027702  00000-0  11643-2 0  9998","2 55100  97.4678 321.1618 0014757  41.7870 318.4490 15.23289046 39323","2023-001CV","55100","6874.065","94.532","506.074","485.786","0"
"GENERATED VIA SPACETRACK.ORG API","18 SPCS","55100","SPACEBEE-158","PAYLOAD","U","23001CV","2023-09-19 02:33:42","204672","15.23318257","0.0014757","97.4676","321.5541","40.3003","319.9324","0","999","3938","0.0013565","0.00032334","0","4010695","0 SPACEBEE-158","1 55100U 23001CV  23262.10673848  .00032334  00000-0  13565-2 0  9996","2 55100  97.4676 321.5541 0014757  40.3003 319.9324 15.23318257 39388","2023-001CV","55100","6873.977","94.530","505.986","485.698","0"
"GENERATED VIA SPACETRACK.ORG API","18 SPCS","55100","SPACEBEE-158","PAYLOAD","U","23001CV","2023-09-20 02:12:31","800672","15.23390199","0.0014681","97.4673","322.534","37.231","322.9941","0","999","3953","0.0013993","0.00033432","0","4011334","0 SPACEBEE-158","1 55100U 23001CV  23263.09203473  .00033432  00000-0  13993-2 0  9993","2 55100  97.4673 322.5340 0014681  37.2310 322.9941 15.23390199 39536","2023-001CV","55100","6873.761","94.526","505.717","485.534","0"
"GENERATED VIA SPACETRACK.ORG API","18 SPCS","55100","SPACEBEE-158","PAYLOAD","U","23001CV","2023-09-20 10:05:27","614400","15.23405994","0.0014643","97.4672","322.8607","36.2184","324.0042","0","999","3958","0.001204","0.00028751","0","4011740","0 SPACEBEE-158","1 55100U 23001CV  23263.42045850  .00028751  00000-0  12040-2 0  9993","2 55100  97.4672 322.8607 0014643  36.2184 324.0042 15.23405994 39580","2023-001CV","55100","6873.713","94.525","505.643","485.513","0"
"GENERATED VIA SPACETRACK.ORG API","18 SPCS","55100","SPACEBEE-158","PAYLOAD","U","23001CV","2023-09-20 17:58:23","88576","15.23421739","0.0014585","97.4671","323.1873","35.0079","325.2113","0","999","3963","0.0010479","0.00025012","0","4011971","0 SPACEBEE-158","1 55100U 23001CV  23263.74887834  .00025012  00000-0  10479-2 0  9995","2 55100  97.4671 323.1873 0014585  35.0079 325.2113 15.23421739 39636","2023-001CV","55100","6873.666","94.524","505.556","485.505","0"
"GENERATED VIA SPACETRACK.ORG API","18 SPCS","55100","SPACEBEE-158","PAYLOAD","U","23001CV","2023-09-20 17:58:23","88576","15.23421739","0.0014585","97.4671","323.1873","35.0079","325.2113","0","999","3963","0.0010479","0.00025012","0","4012054","0 SPACEBEE-158","1 55100U 23001CV  23263.74887834  .00025012  00000-0  10479-2 0  9995","2 55100  97.4671 323.1873 0014585  35.0079 325.2113 15.23421739 39636","2023-001CV","55100","6873.666","94.524","505.556","485.505","0"
"GENERATED VIA SPACETRACK.ORG API","18 SPCS","55100","SPACEBEE-158","PAYLOAD","U","23001CV","2023-09-21 03:25:53","275872","15.23441793","0.0014508","97.4671","323.5792","33.5363","326.679","0","999","3969","0.0010926","0.00026101","0","4012680","0 SPACEBEE-158","1 55100U 23001CV  23264.14297773  .00026101  00000-0  10926-2 0  9994","2 55100  97.4671 323.5792 0014508  33.5363 326.6790 15.23441793 39698","2023-001CV","55100","6873.605","94.523","505.443","485.498","0"
"GENERATED VIA SPACETRACK.ORG API","18 SPCS","55100","SPACEBEE-158","PAYLOAD","U","23001CV","2023-09-21 17:37:07","796928","15.23467294","0.001441","97.4671","324.1672","31.4752","328.7344","0","999","3978","0.00097341","0.00023254","0","4012956","0 SPACEBEE-158","1 55100U 23001CV  23264.73411802  .00023254  00000-0  97341-3 0  9993","2 55100  97.4671 324.1672 0014410  31.4752 328.7344 15.23467294 39785","2023-001CV","55100","6873.529","94.521","505.298","485.489","0"
"GENERATED VIA SPACETRACK.ORG API","18 SPCS","55100","SPACEBEE-158","PAYLOAD","U","23001CV","2023-09-22 03:04:36","889536","15.23489903","0.0014403","97.4669","324.5592","29.7486","330.4566","0","999","3984","0.0011283","0.00026997","0","4013169","0 SPACEBEE-158","1 55100U 23001CV  23265.12820474  .00026997  00000-0  11283-2 0  9993","2 55100  97.4669 324.5592 0014403  29.7486 330.4566 15.23489903 39847","2023-001CV","55100","6873.461","94.520","505.226","485.426","0"
"GENERATED VIA SPACETRACK.ORG API","18 SPCS","55100","SPACEBEE-158","PAYLOAD","U","23001CV","2023-09-22 03:04:36","889536","15.23489903","0.0014403","97.4669","324.5592","29.7486","330.4566","0","999","3984","0.0011283","0.00026997","0","4013584","0 SPACEBEE-158","1 55100U 23001CV  23265.12820474  .00026997  00000-0  11283-2 0  9993","2 55100  97.4669 324.5592 0014403  29.7486 330.4566 15.23489903 39847","2023-001CV","55100","6873.461","94.520","505.226","485.426","0"
"GENERATED VIA SPACETRACK.ORG API","18 SPCS","55100","SPACEBEE-158","PAYLOAD","U","23001CV","2023-09-22 17:15:49","676544","15.23521187","0.0014322","97.4671","325.1471","27.8862","332.314","0","999","3993","0.0011322","0.00027115","0","4013859","0 SPACEBEE-158","1 55100U 23001CV  23265.71932496  .00027115  00000-0  11322-2 0  9993","2 55100  97.4671 325.1471 0014322  27.8862 332.3140 15.23521187 39930","2023-001CV","55100","6873.367","94.518","505.076","485.388","0"
"GENERATED VIA SPACETRACK.ORG API","18 SPCS","55100","SPACEBEE-158","PAYLOAD","U","23001CV","2023-09-23 02:43:17","568192","15.23545789","0.001433","97.4671","325.5392","26.4279","333.7686","0","999","3999","0.0012756","0.00030595","0","4014543","0 SPACEBEE-158","1 55100U 23001CV  23266.11339778  .00030595  00000-0  12756-2 0  9990","2 55100  97.4671 325.5392 0014330  26.4279 333.7686 15.23545789 39992","2023-001CV","55100","6873.293","94.516","505.007","485.308","0"
"GENERATED VIA SPACETRACK.ORG API","18 SPCS","55100","SPACEBEE-158","PAYLOAD","U","23001CV","2023-09-23 16:54:28","462176","15.23577778","0.0014286","97.4675","326.1272","24.4359","335.7552","0","999","4008","0.0011391","0.00027327","0","4014737","0 SPACEBEE-158","1 55100U 23001CV  23266.70449609  .00027327  00000-0  11391-2 0  9993","2 55100  97.4675 326.1272 0014286  24.4359 335.7552 15.23577778 40086","2023-001CV","55100","6873.196","94.514","504.880","485.242","0"
"GENERATED VIA SPACETRACK.ORG API","18 SPCS","55100","SPACEBEE-158","PAYLOAD","U","23001CV","2023-09-24 03:56:29","375232","15.2360678","0.0014272","97.4674","326.5848","22.8377","337.3491","0","999","4015","0.001139","0.00027348","0","4015358","0 SPACEBEE-158","1 55100U 23001CV  23267.16422888  .00027348  00000-0  11390-2 0  9996","2 55100  97.4674 326.5848 0014272  22.8377 337.3491 15.23606780 40159","2023-001CV","55100","6873.109","94.513","504.783","485.165","0"
"GENERATED VIA SPACETRACK.ORG API","18 SPCS","55100","SPACEBEE-158","PAYLOAD","U","23001CV","2023-09-24 18:07:38","279424","15.23637869","0.0014168","97.4676","327.1729","20.7247","339.4561","0","999","4024","0.001123","0.00026985","0","4015590","0 SPACEBEE-158","1 55100U 23001CV  23267.75530416  .00026985  00000-0  11230-2 0  9997","2 55100  97.4676 327.1729 0014168  20.7247 339.4561 15.23637869 40246","2023-001CV","55100","6873.016","94.511","504.618","485.143","0"
"GENERATED VIA SPACETRACK.ORG API","18 SPCS","55100","SPACEBEE-158","PAYLOAD","U","23001CV","2023-09-24 18:07:38","279424","15.23637869","0.0014168","97.4676","327.1729","20.7247","339.4561","0","999","4024","0.001123","0.00026985","0","4015673","0 SPACEBEE-158","1 55100U 23001CV  23267.75530416  .00026985  00000-0  11230-2 0  9997","2 55100  97.4676 327.1729 0014168  20.7247 339.4561 15.23637869 40246","2023-001CV","55100","6873.016","94.511","504.618","485.143","0"
